locationid,FacilityType,Address,Status,Latitude,Longitude,Approved,ExpirationDate,Name
1571753,Truck,3750 18TH ST,APPROVED,37.76201920035647,-122.42730642251333,01/28/2022 12:00:00 AM,11/15/2022 12:00:00 AM,The Geez Freeze
1569152,Truck,2535 TAYLOR ST,APPROVED,37.805885350100986,-122.41594524663743,11/05/2021 12:00:00 AM,11/15/2022 12:00:00 AM,Datam SF LLC dba Anzu To You
1569145,Truck,Assessors Block 7283/Lot004,APPROVED,37.72188970870838,-122.4925212449949,11/05/2021 12:00:00 AM,11/15/2022 12:00:00 AM,Casita Vegana
1591820,Truck,217 SANSOME ST,APPROVED,37.79238986198323,-122.40126969523558,02/09/2022 12:00:00 AM,11/15/2022 12:00:00 AM,Truly Food & More
1565593,Truck,351 CALIFORNIA ST,APPROVED,37.792870749741496,-122.4007474940767,10/22/2021 12:00:00 AM,11/15/2022 12:00:00 AM,MOMO INNOVATION LLC
1565571,Truck,101 CALIFORNIA ST,APPROVED,37.79294895283466,-122.39809861316652,10/22/2021 12:00:00 AM,11/15/2022 12:00:00 AM,MOMO INNOVATION LLC
1565954,Truck,1 MONTGOMERY ST,APPROVED,37.78924953407508,-122.40241859729358,10/22/2021 12:00:00 AM,11/15/2022 12:00:00 AM,Treats by the Bay LLC
1565594,Truck,667 MISSION ST,APPROVED,37.7865580501799,-122.40103337534973,10/22/2021 12:00:00 AM,11/15/2022 12:00:00 AM,MOMO INNOVATION LLC
1565628,Truck,120 ELLIS ST,APPROVED,37.78561008636915,-122.40815476434544,10/22/2021 12:00:00 AM,11/15/2022 12:00:00 AM,Treats by the Bay LLC
1565413,Truck,1 BUSH ST,APPROVED,37.79092150726921,-122.4001004237385,10/22/2021 12:00:00 AM,11/15/2022 12:00:00 AM,MOMO INNOVATION LLC
1047831,Truck,8 10TH ST,REQUESTED,37.7758255197583,-122.41724962664344,,,The Chef Station
1565414,Truck,555 MISSION ST,APPROVED,37.78844615690132,-122.3986412420388,10/22/2021 12:00:00 AM,11/15/2022 12:00:00 AM,MOMO INNOVATION LLC
1565623,Truck,201 02ND ST,APPROVED,37.78680165059711,-122.39787163500326,10/22/2021 12:00:00 AM,11/15/2022 12:00:00 AM,Treats by the Bay LLC
1598473,Truck,3119 ALEMANY BLVD,APPROVED,37.71019301997575,-122.4552219061259,02/23/2022 12:00:00 AM,11/15/2022 12:00:00 AM,San Pancho's Tacos
1591819,Truck,505 HOWARD ST,APPROVED,37.78798864899528,-122.39610066847152,02/09/2022 12:00:00 AM,11/15/2022 12:00:00 AM,Truly Food & More
1591821,Truck,602 MISSION ST,APPROVED,37.78797328321604,-122.40018504988888,02/09/2022 12:00:00 AM,11/15/2022 12:00:00 AM,Truly Food & More
1598475,Truck,1271 CAPITOL AVE,APPROVED,37.72429777852764,-122.4593773095484,02/23/2022 12:00:00 AM,11/15/2022 12:00:00 AM,San Pancho's Tacos
1598474,Truck,491 BAY SHORE BLVD,APPROVED,0.0,0.0,02/23/2022 12:00:00 AM,11/15/2022 12:00:00 AM,San Pancho's Tacos
1589658,Truck,475 CALIFORNIA ST,APPROVED,37.792346385148,-122.40238532279396,01/13/2022 12:00:00 AM,11/15/2022 12:00:00 AM,Zuri Food Facilities
1589659,Truck,100 SPEAR ST,APPROVED,37.792150548481686,-122.39399997405944,01/13/2022 12:00:00 AM,11/15/2022 12:00:00 AM,Zuri Food Facilities
1589647,Truck,556 SUTTER ST,APPROVED,37.789385451039095,-122.4095912604668,01/13/2022 12:00:00 AM,11/15/2022 12:00:00 AM,Philz Coffee Truck
1589657,Truck,490 02ND ST,APPROVED,37.78304609975,-122.39406659922962,01/13/2022 12:00:00 AM,11/15/2022 12:00:00 AM,Zuri Food Facilities
1589653,Truck,1 MONTGOMERY ST,APPROVED,37.78924953407508,-122.40241859729358,01/13/2022 12:00:00 AM,11/15/2022 12:00:00 AM,Plaza Garibaldy
1589648,Truck,401 CALIFORNIA ST,APPROVED,37.79279574157871,-122.40135328093122,01/13/2022 12:00:00 AM,11/15/2022 12:00:00 AM,Philz Coffee Truck
1577179,Truck,3253 16TH ST,APPROVED,37.76445952144236,-122.42516137635808,12/03/2021 12:00:00 AM,11/15/2022 12:00:00 AM,BH & MT LLC
1577113,Truck,200 LARKIN ST,APPROVED,37.78021548028814,-122.41602577015112,12/03/2021 12:00:00 AM,11/15/2022 12:00:00 AM,"BOWL'D ACAI, LLC."
1577178,Truck,1477 GROVE ST,APPROVED,37.77529014231951,-122.4407311621107,12/03/2021 12:00:00 AM,11/15/2022 12:00:00 AM,BH & MT LLC
1589650,Truck,735 MONTGOMERY ST,APPROVED,37.79621549659414,-122.40375455824538,01/13/2022 12:00:00 AM,11/15/2022 12:00:00 AM,Philz Coffee Truck
1589651,Truck,475 CALIFORNIA ST,APPROVED,37.792346385148,-122.40238532279396,01/13/2022 12:00:00 AM,11/15/2022 12:00:00 AM,Plaza Garibaldy
1577177,Truck,1265 GROVE ST,APPROVED,37.775774368410254,-122.43733160784082,12/03/2021 12:00:00 AM,11/15/2022 12:00:00 AM,BH & MT LLC
1577112,Truck,111 BATTERY ST,APPROVED,37.79236678688307,-122.40014830676716,12/03/2021 12:00:00 AM,11/15/2022 12:00:00 AM,"BOWL'D ACAI, LLC."
1577174,Truck,949 PRESIDIO AVE,APPROVED,37.783922070111466,-122.44672163317198,12/03/2021 12:00:00 AM,11/15/2022 12:00:00 AM,BH & MT LLC
1589660,Truck,1601 MARIPOSA ST,APPROVED,0.0,0.0,01/13/2022 12:00:00 AM,11/15/2022 12:00:00 AM,Zuri Food Facilities
1577173,Truck,170 OTIS ST,APPROVED,0.0,0.0,12/03/2021 12:00:00 AM,11/15/2022 12:00:00 AM,BH & MT LLC
1577114,Truck,451 MONTGOMERY ST,APPROVED,37.79357693326183,-122.40322987670132,12/03/2021 12:00:00 AM,11/15/2022 12:00:00 AM,"BOWL'D ACAI, LLC."
1577176,Truck,2001 MARKET ST,APPROVED,37.768320249510616,-122.42711064395492,12/03/2021 12:00:00 AM,11/15/2022 12:00:00 AM,BH & MT LLC
1589646,Truck,250 PINE ST,APPROVED,37.79229559981873,-122.40070689723306,01/13/2022 12:00:00 AM,11/15/2022 12:00:00 AM,Philz Coffee Truck
1577175,Truck,401 23RD ST,APPROVED,37.755030726766726,-122.38453073422282,12/03/2021 12:00:00 AM,11/15/2022 12:00:00 AM,BH & MT LLC
1577180,Truck,2145 MARKET ST,APPROVED,37.7666247727157,-122.42951117634738,12/03/2021 12:00:00 AM,11/15/2022 12:00:00 AM,BH & MT LLC
1577115,Truck,15 MARINA BLVD,APPROVED,37.80457786909011,-122.43301077434302,12/03/2021 12:00:00 AM,11/15/2022 12:00:00 AM,"BOWL'D ACAI, LLC."
1589652,Truck,540 HOWARD ST,APPROVED,37.78795495968584,-122.39723654373122,01/13/2022 12:00:00 AM,11/15/2022 12:00:00 AM,Plaza Garibaldy
1589649,Truck,15 MARINA BLVD,APPROVED,37.80457786909011,-122.43301077434302,01/13/2022 12:00:00 AM,11/15/2022 12:00:00 AM,Philz Coffee Truck
934719,Truck,1 SANSOME ST,EXPIRED,37.790485146128,-122.40094044068952,03/21/2017 12:00:00 AM,07/15/2018 12:00:00 AM,"Santana ESG, Inc."
1591823,Truck,290 TOWNSEND ST,APPROVED,37.77775521656862,-122.394807823179,03/22/2022 12:00:00 AM,11/15/2022 12:00:00 AM,Cochinita
1591822,Truck,2601 24TH ST,APPROVED,37.752822368121485,-122.4055319192157,03/22/2022 12:00:00 AM,11/15/2022 12:00:00 AM,Cochinita
1336741,Truck,1575 BURKE AVE,EXPIRED,37.74417844737573,-122.38671592975922,07/10/2019 12:00:00 AM,01/15/2021 12:00:00 AM,Quan Catering
1591825,Truck,501 BEALE ST,APPROVED,37.78623677446536,-122.38906620560476,03/22/2022 12:00:00 AM,11/15/2022 12:00:00 AM,Cochinita
1591827,Truck,617 BRYANT ST,APPROVED,37.779051111573146,-122.39830388133372,03/22/2022 12:00:00 AM,11/15/2022 12:00:00 AM,Cochinita
1337426,Truck,Assessors Block /Lot,EXPIRED,0.0,0.0,07/12/2019 12:00:00 AM,01/15/2021 12:00:00 AM,Liang Bai Ping
848184,Truck,201 BAY SHORE BLVD,REQUESTED,37.74530890865633,-122.40342005999852,,03/15/2017 12:00:00 AM,Reecees Soulicious
1332942,Truck,147 FREMONT ST,EXPIRED,37.79018557063344,-122.39547172580944,06/26/2019 12:00:00 AM,01/15/2021 12:00:00 AM,Mini Mobile Food Catering
1590834,Truck,1800 FOLSOM ST,APPROVED,37.76785244271805,-122.41610489253188,01/20/2022 12:00:00 AM,11/15/2022 12:00:00 AM,El Alambre
1343831,Push Cart,1020 03RD ST,REQUESTED,37.77551013804947,-122.39099930600248,,07/15/2020 12:00:00 AM,Got Snacks
1590836,Truck,1188 FRANKLIN ST,APPROVED,37.785271949066775,-122.42260358516438,01/20/2022 12:00:00 AM,11/15/2022 12:00:00 AM,El Alambre
1590835,Truck,1100 FRANKLIN ST,APPROVED,37.78484602775554,-122.42256813313708,01/20/2022 12:00:00 AM,11/15/2022 12:00:00 AM,El Alambre
1590833,Truck,1800 FOLSOM ST,APPROVED,37.76785244271805,-122.41610489253188,01/20/2022 12:00:00 AM,11/15/2022 12:00:00 AM,El Alambre
1591829,Truck,999 DIVISADERO ST,APPROVED,37.77838430096904,-122.43878238856672,03/22/2022 12:00:00 AM,11/15/2022 12:00:00 AM,Cochinita
1591824,Truck,501 02ND ST,APPROVED,37.7831711043434,-122.39290104947858,03/22/2022 12:00:00 AM,11/15/2022 12:00:00 AM,Cochinita
1591828,Truck,1219 07TH AVE,APPROVED,37.76549698761915,-122.46459761957114,03/22/2022 12:00:00 AM,11/15/2022 12:00:00 AM,Cochinita
1591826,Truck,490 BRANNAN ST,APPROVED,37.778863135500174,-122.39644435935811,03/22/2022 12:00:00 AM,11/15/2022 12:00:00 AM,Cochinita
934516,Truck,50 01ST ST,EXPIRED,37.79014907372554,-122.39865818460405,03/16/2017 12:00:00 AM,07/15/2018 12:00:00 AM,Scotch Bonnet
1337425,Truck,931 PALOU AVE,EXPIRED,37.72673391124156,-122.37897200523552,07/12/2019 12:00:00 AM,01/15/2021 12:00:00 AM,Liang Bai Ping
1587521,Truck,625 02ND ST,APPROVED,37.78168897534514,-122.3910618172866,12/30/2021 12:00:00 AM,11/15/2022 12:00:00 AM,"Chairman SF, LLC"
1606346,Truck,351 CALIFORNIA ST,REQUESTED,37.792870749741496,-122.4007474940767,,11/15/2021 12:00:00 AM,MOMO INNOVATION LLC
1611740,Truck,125 NAPOLEON ST,REQUESTED,37.746856017691925,-122.39714976579396,,11/15/2022 12:00:00 AM,Kid Abelha - Brazilian Hamburgers
1611739,Truck,2045 EVANS AVE,REQUESTED,37.747772091607466,-122.39703171897756,,11/15/2022 12:00:00 AM,Kid Abelha - Brazilian Hamburgers
1611672,Truck,44 MARY ST,REQUESTED,37.781372367648615,-122.40661921344578,,11/15/2022 12:00:00 AM,"Off the Grid Services, LLC"
1552372,Truck,234 01ST ST,APPROVED,37.7877332717998,-122.39566345752182,04/20/2022 12:00:00 AM,11/15/2022 12:00:00 AM,Breakfast Embed
1585452,Truck,90 BROADWAY,APPROVED,37.799260113502285,-122.39961794865545,12/17/2021 12:00:00 AM,11/15/2022 12:00:00 AM,"Off the Grid Services, LLC"
1552373,Truck,1200 04TH ST,APPROVED,37.77248360682256,-122.39181160681602,04/20/2022 12:00:00 AM,11/15/2022 12:00:00 AM,Breakfast Embed
1612646,Truck,345 WILLIAMS AVE,REQUESTED,37.72980548057414,-122.39924710472444,,11/15/2022 12:00:00 AM,San Francisco Taco Truck
1612654,Truck,2155 37TH AVE,REQUESTED,37.74732654654123,-122.49628067270532,,11/15/2022 12:00:00 AM,Sunset Mercantile/Outer Sunset Farmers Market & Mercantile
1591839,Truck,1 SANSOME ST,REQUESTED,37.790485146128,-122.40094044068952,,11/15/2022 12:00:00 AM,Tacos Rodriguez
1591842,Truck,2198 OAKDALE AVE,REQUESTED,37.74099473500238,-122.4011723353864,,11/15/2022 12:00:00 AM,Tacos Rodriguez
1591840,Truck,1275 EVANS AVE,REQUESTED,37.73911142974502,-122.38246497113636,,11/15/2022 12:00:00 AM,Tacos Rodriguez
1591841,Truck,600 MENDELL ST,REQUESTED,37.73967879180792,-122.38649338455488,,11/15/2022 12:00:00 AM,Tacos Rodriguez
1585476,Push Cart,100 POST ST,APPROVED,37.78923328289614,-122.40557905421024,12/17/2021 12:00:00 AM,11/15/2022 12:00:00 AM,"San Francisco Street Foods, Inc."
1575168,Truck,901 16TH ST,APPROVED,37.76612469442701,-122.39547306227009,11/19/2021 12:00:00 AM,11/15/2022 12:00:00 AM,Buenafe
1571659,Push Cart,345 STOCKTON ST,APPROVED,37.78891014957045,-122.40719603412224,11/22/2021 12:00:00 AM,11/15/2022 12:00:00 AM,"San Francisco Carts & Concessions, Inc. DBA Stanley's Steamers Hot Dogs"
1575155,Truck,505 HOWARD ST,APPROVED,37.78798864899528,-122.39610066847152,11/19/2021 12:00:00 AM,11/15/2022 12:00:00 AM,Papalote Inc.
1575171,Truck,750 PHELPS ST,APPROVED,37.73944545286909,-122.39301498669842,11/19/2021 12:00:00 AM,11/15/2022 12:00:00 AM,Buenafe
1571657,Push Cart,233 GEARY ST,APPROVED,37.78724260259671,-122.40687973821338,11/22/2021 12:00:00 AM,11/15/2022 12:00:00 AM,"San Francisco Carts & Concessions, Inc. DBA Stanley's Steamers Hot Dogs"
1571649,Truck,2590 MARIN ST,APPROVED,37.74837582577795,-122.40320062649582,11/19/2021 12:00:00 AM,11/15/2022 12:00:00 AM,DO UC US Mobile Catering
1585472,Push Cart,2 MONTGOMERY ST,APPROVED,37.78939197610272,-122.4018247471207,12/17/2021 12:00:00 AM,11/15/2022 12:00:00 AM,"San Francisco Street Foods, Inc."
1585449,Truck,185 BERRY ST,APPROVED,37.77632714778992,-122.39179682107692,12/17/2021 12:00:00 AM,11/15/2022 12:00:00 AM,"Off the Grid Services, LLC"
1575218,Truck,1455 MARKET ST,APPROVED,37.77522830783405,-122.41746613186956,11/19/2021 12:00:00 AM,11/15/2022 12:00:00 AM,"Bay Area Mobile Catering, Inc. dba. Taqueria Angelica's"
1568970,Truck,1223 WEBSTER ST,APPROVED,37.78239151018784,-122.43111456170246,11/04/2021 12:00:00 AM,11/15/2022 12:00:00 AM,Fillmore Square
1568948,Truck,120 ELLIS ST,APPROVED,37.78561008636915,-122.40815476434544,11/04/2021 12:00:00 AM,11/15/2022 12:00:00 AM,Senor Sisig
1568992,Truck,531 BAY SHORE BLVD,APPROVED,37.738726803987134,-122.40673602990492,11/05/2021 12:00:00 AM,11/15/2022 12:00:00 AM,La Jefa
1568972,Truck,1290 FILLMORE ST,APPROVED,37.78127594842663,-122.43184035948616,11/04/2021 12:00:00 AM,11/15/2022 12:00:00 AM,Fillmore Square
1568947,Truck,120 02ND ST,APPROVED,37.7875140607381,-122.39956633142909,11/04/2021 12:00:00 AM,11/15/2022 12:00:00 AM,Senor Sisig
1568998,Truck,430 CALIFORNIA ST,APPROVED,37.793262206923096,-122.4017890913628,11/05/2021 12:00:00 AM,11/15/2022 12:00:00 AM,Think is Good Inc.
1568951,Truck,300 PINE ST,APPROVED,0.0,0.0,11/04/2021 12:00:00 AM,11/15/2022 12:00:00 AM,Senor Sisig
1568999,Truck,560 MISSION ST,APPROVED,37.78886471534304,-122.39935935136296,11/05/2021 12:00:00 AM,11/15/2022 12:00:00 AM,Think is Good Inc.
1568966,Truck,1888 MISSION ST,APPROVED,37.76689760255916,-122.42032247306808,11/04/2021 12:00:00 AM,11/15/2022 12:00:00 AM,CARDONA'S FOOD TRUCK
1568965,Truck,1800 MISSION ST,APPROVED,37.76781718141415,-122.42057533514163,11/04/2021 12:00:00 AM,11/15/2022 12:00:00 AM,CARDONA'S FOOD TRUCK
1568973,Truck,1245 FILLMORE ST,APPROVED,37.78085752242169,-122.43305677044792,11/04/2021 12:00:00 AM,11/15/2022 12:00:00 AM,Fillmore Square
1568997,Truck,100 PINE ST,APPROVED,37.79264071673365,-122.39897033211076,11/05/2021 12:00:00 AM,11/15/2022 12:00:00 AM,Think is Good Inc.
1568883,Truck,101 CALIFORNIA ST,APPROVED,37.79294895283466,-122.39809861316652,11/04/2021 12:00:00 AM,11/15/2022 12:00:00 AM,Senor Sisig
1568971,Truck,1290 FILLMORE ST,APPROVED,37.78127594842663,-122.43184035948616,11/04/2021 12:00:00 AM,11/15/2022 12:00:00 AM,Fillmore Square
1568959,Truck,90 BROADWAY,APPROVED,37.799260113502285,-122.39961794865545,11/04/2021 12:00:00 AM,11/15/2022 12:00:00 AM,Senor Sisig
1568975,Truck,1234 GREAT HWY,APPROVED,37.76360804110198,-122.50959579624612,11/04/2021 12:00:00 AM,11/15/2022 12:00:00 AM,California Kahve
1568884,Truck,901 MISSION ST,APPROVED,37.78215364099855,-122.40660110683912,11/04/2021 12:00:00 AM,11/15/2022 12:00:00 AM,Senor Sisig
1568961,Truck,8 10TH ST,APPROVED,37.7758255197583,-122.41724962664344,11/04/2021 12:00:00 AM,11/15/2022 12:00:00 AM,Senor Sisig
1575170,Truck,220 RANKIN ST,APPROVED,37.74574924062031,-122.3924814876784,11/19/2021 12:00:00 AM,11/15/2022 12:00:00 AM,Buenafe
1568960,Truck,90 BROADWAY,APPROVED,37.799260113502285,-122.39961794865545,11/04/2021 12:00:00 AM,11/15/2022 12:00:00 AM,Senor Sisig
1585474,Push Cart,701 HOWARD ST,APPROVED,37.78351335124536,-122.40081339110536,12/17/2021 12:00:00 AM,11/15/2022 12:00:00 AM,"San Francisco Street Foods, Inc."
1617853,Truck,2901 03RD ST,REQUESTED,37.75240499247832,-122.38700019629786,,11/15/2022 12:00:00 AM,Tacos El Flaco
1585451,Truck,185 BERRY ST,APPROVED,37.77632714778992,-122.39179682107692,12/17/2021 12:00:00 AM,11/15/2022 12:00:00 AM,"Off the Grid Services, LLC"
1571648,Truck,1420 04TH ST,APPROVED,37.76989774889607,-122.3910982796345,11/19/2021 12:00:00 AM,11/15/2022 12:00:00 AM,DO UC US Mobile Catering
1571646,Truck,400 PARNASSUS AVE,APPROVED,37.763864032383225,-122.4583917498439,11/19/2021 12:00:00 AM,11/15/2022 12:00:00 AM,DO UC US Mobile Catering
1575216,Truck,3065 25TH ST,APPROVED,37.7509316476402,-122.4114199662057,11/19/2021 12:00:00 AM,11/15/2022 12:00:00 AM,"Bay Area Mobile Catering, Inc. dba. Taqueria Angelica's"
1585453,Truck,340 BRANNAN ST,APPROVED,37.781264686022816,-122.3932290415377,12/17/2021 12:00:00 AM,11/15/2022 12:00:00 AM,"Off the Grid Services, LLC"
1585473,Push Cart,1 THE EMBARCADERO,APPROVED,37.79464383461952,-122.39964429852886,12/17/2021 12:00:00 AM,11/15/2022 12:00:00 AM,"San Francisco Street Foods, Inc."
1571658,Push Cart,251 GEARY ST,APPROVED,37.78717629174164,-122.4073980759582,11/22/2021 12:00:00 AM,11/15/2022 12:00:00 AM,"San Francisco Carts & Concessions, Inc. DBA Stanley's Steamers Hot Dogs"
1585467,Truck,1 BUSH ST,APPROVED,37.79092150726921,-122.4001004237385,12/17/2021 12:00:00 AM,11/15/2022 12:00:00 AM,Roadside Rotisserie Corporation / Country Grill
1571647,Truck,1501 03RD ST,APPROVED,37.77089223103183,-122.3891692314827,11/19/2021 12:00:00 AM,11/15/2022 12:00:00 AM,DO UC US Mobile Catering
1575217,Truck,1501 FOLSOM ST,APPROVED,37.771586702670334,-122.41400704302406,11/19/2021 12:00:00 AM,11/15/2022 12:00:00 AM,"Bay Area Mobile Catering, Inc. dba. Taqueria Angelica's"
1585475,Push Cart,5 THE EMBARCADERO,APPROVED,37.794331003246846,-122.39581105302317,12/17/2021 12:00:00 AM,11/15/2022 12:00:00 AM,"San Francisco Street Foods, Inc."
1585450,Truck,250 04TH ST,APPROVED,37.78236012101754,-122.40209599456324,12/17/2021 12:00:00 AM,11/15/2022 12:00:00 AM,"Off the Grid Services, LLC"
963998,Truck,360 PENINSULA AVE,REQUESTED,37.7108412835853,-122.39964261496316,,03/15/2018 12:00:00 AM,Singh Brothers Ice Cream
1585469,Truck,90 BROADWAY,APPROVED,37.799260113502285,-122.39961794865545,12/17/2021 12:00:00 AM,11/15/2022 12:00:00 AM,Roadside Rotisserie Corporation / Country Grill
1585454,Truck,525 BRANNAN ST,APPROVED,37.77751326467553,-122.3970441344819,12/17/2021 12:00:00 AM,11/15/2022 12:00:00 AM,"Off the Grid Services, LLC"
1575215,Truck,1301 CESAR CHAVEZ ST,APPROVED,37.74925585952909,-122.3909753795768,11/19/2021 12:00:00 AM,11/15/2022 12:00:00 AM,"Bay Area Mobile Catering, Inc. dba. Taqueria Angelica's"
1571660,Push Cart,100 GEARY ST,APPROVED,37.7879142297241,-122.4052705230952,11/22/2021 12:00:00 AM,11/15/2022 12:00:00 AM,"San Francisco Carts & Concessions, Inc. DBA Stanley's Steamers Hot Dogs"
1575156,Truck,60 SPEAR ST,APPROVED,37.79253598843109,-122.394593199235,11/19/2021 12:00:00 AM,11/15/2022 12:00:00 AM,Papalote Inc.
1174517,Push Cart,298 MARKET ST,REQUESTED,37.79321373166341,-122.39704303671824,,07/15/2019 12:00:00 AM,CC Acquisition LLC
1535606,Truck,75 HOWARD ST,EXPIRED,37.79155786415492,-122.39167149978556,07/02/2021 12:00:00 AM,11/15/2021 12:00:00 AM,Wu Wei LLC dba MoBowl
1576354,Truck,281 GEARY ST,APPROVED,37.78713649108612,-122.4077185090006,12/02/2021 12:00:00 AM,11/15/2022 12:00:00 AM,San Francisco's Hometown Creamery
963989,Truck,1420 YOSEMITE AVE,REQUESTED,37.725181700728754,-122.38819268844397,,03/15/2018 12:00:00 AM,Singh Brothers Ice Cream
1163787,Truck,500 MASONIC AVE,REQUESTED,37.77655004281911,-122.44630763555782,,07/15/2019 12:00:00 AM,"SOHOMEI, LLC"
1163793,Truck,3300 CESAR CHAVEZ ST,REQUESTED,37.74854979425914,-122.41617066200786,,07/15/2019 12:00:00 AM,"SOHOMEI, LLC"
1022810,Truck,400 CALIFORNIA ST,ISSUED,37.79330427556103,-122.4014589984134,08/09/2018 12:00:00 AM,07/15/2019 12:00:00 AM,Serendipity SF
1585448,Truck,90 BROADWAY,APPROVED,37.799260113502285,-122.39961794865545,12/17/2021 12:00:00 AM,11/15/2022 12:00:00 AM,"Off the Grid Services, LLC"
1587558,Truck,380 10TH ST,APPROVED,37.77165385136786,-122.41180906852377,12/30/2021 12:00:00 AM,11/15/2022 12:00:00 AM,Brazuca Grill
1587539,Truck,133 SHIPLEY ST,APPROVED,37.78072409776966,-122.40123539265836,12/30/2021 12:00:00 AM,11/15/2022 12:00:00 AM,Brazuca Grill
1587556,Truck,2150 CESAR CHAVEZ ST,APPROVED,37.75023688477907,-122.3978180317186,12/30/2021 12:00:00 AM,11/15/2022 12:00:00 AM,Brazuca Grill
1587551,Truck,3150 03RD ST,APPROVED,37.74944293760035,-122.38798553250405,12/30/2021 12:00:00 AM,11/15/2022 12:00:00 AM,Brazuca Grill
1587546,Truck,1051 26TH ST,APPROVED,37.75126940587811,-122.38989436694436,12/30/2021 12:00:00 AM,11/15/2022 12:00:00 AM,Brazuca Grill
1587559,Truck,1347 DONNER AVE,APPROVED,37.72145083973351,-122.38935344507568,12/30/2021 12:00:00 AM,11/15/2022 12:00:00 AM,Brazuca Grill
1587569,Truck,1411 MARKET ST,APPROVED,37.7758255197583,-122.41724962664344,12/30/2021 12:00:00 AM,11/15/2022 12:00:00 AM,Brazuca Grill
1587538,Truck,1255 22ND ST,APPROVED,37.75701552445967,-122.39406294711628,12/30/2021 12:00:00 AM,11/15/2022 12:00:00 AM,Brazuca Grill
1587564,Truck,998 INDIANA ST,APPROVED,37.75803739348808,-122.3916718906821,12/30/2021 12:00:00 AM,11/15/2022 12:00:00 AM,Brazuca Grill
1585952,Truck,505 HOWARD ST,APPROVED,37.78798864899528,-122.39610066847152,12/23/2021 12:00:00 AM,11/15/2022 12:00:00 AM,Bonito Poke
1585955,Truck,409 ILLINOIS ST,APPROVED,37.76624504710292,-122.38735628651092,12/23/2021 12:00:00 AM,11/15/2022 12:00:00 AM,Bonito Poke
1591818,Truck,1028 MISSION ST,SUSPEND,37.78069437740818,-122.40966881321906,,11/15/2022 12:00:00 AM,Rita's Catering
1585964,Truck,370 DRUMM ST,APPROVED,37.79691371248354,-122.39665067526364,12/23/2021 12:00:00 AM,11/15/2022 12:00:00 AM,Curry Up Now
1577204,Push Cart,800 MARKET ST,APPROVED,37.78546974648992,-122.40661576107294,12/23/2021 12:00:00 AM,11/15/2022 12:00:00 AM,"The New York Frankfurter Co. of CA, Inc. DBA: Annie's Hot Dogs"
1577206,Push Cart,101 STOCKTON ST,APPROVED,37.786856111883054,-122.40689189299718,12/23/2021 12:00:00 AM,11/15/2022 12:00:00 AM,"The New York Frankfurter Co. of CA, Inc. DBA: Annie's Hot Dogs"
1585966,Truck,727 SANSOME ST,APPROVED,37.79694900602121,-122.40218343189426,12/23/2021 12:00:00 AM,11/15/2022 12:00:00 AM,Curry Up Now
1585967,Truck,601 03RD ST,APPROVED,37.78007717443923,-122.39376729448306,12/23/2021 12:00:00 AM,11/15/2022 12:00:00 AM,Curry Up Now
1585954,Truck,400 HOWARD ST,APPROVED,37.78911920766765,-122.39588103933524,12/23/2021 12:00:00 AM,11/15/2022 12:00:00 AM,Bonito Poke
1577205,Push Cart,870 MARKET ST,APPROVED,37.78511092044776,-122.40742266827704,12/23/2021 12:00:00 AM,11/15/2022 12:00:00 AM,"The New York Frankfurter Co. of CA, Inc. DBA: Annie's Hot Dogs"
1585965,Truck,225 BUSH ST,APPROVED,37.79083841945172,-122.40116037029892,12/23/2021 12:00:00 AM,11/15/2022 12:00:00 AM,Curry Up Now
1585953,Truck,430 CALIFORNIA ST,APPROVED,37.793262206923096,-122.4017890913628,12/23/2021 12:00:00 AM,11/15/2022 12:00:00 AM,Bonito Poke
1587562,Truck,1750 FOLSOM ST,APPROVED,37.76890352056648,-122.41598117460148,12/30/2021 12:00:00 AM,11/15/2022 12:00:00 AM,Brazuca Grill
1587571,Truck,2660 NEWHALL ST,APPROVED,37.727212173900384,-122.39963625164356,12/30/2021 12:00:00 AM,11/15/2022 12:00:00 AM,Brazuca Grill
1587547,Truck,1090 26TH ST,APPROVED,37.751608413578936,-122.39030948950146,12/30/2021 12:00:00 AM,11/15/2022 12:00:00 AM,Brazuca Grill
1587393,Truck,1500 GENEVA AVE,REQUESTED,37.712302604744416,-122.43164419037294,,11/15/2022 12:00:00 AM,Truly Food & More
1587576,Truck,1199 ORTEGA ST,APPROVED,37.78350912221273,-122.49007120809986,12/30/2021 12:00:00 AM,11/15/2022 12:00:00 AM,Eva's Catering
1587565,Truck,951 INDIANA ST,APPROVED,37.758786162305626,-122.39095839869276,12/30/2021 12:00:00 AM,11/15/2022 12:00:00 AM,Brazuca Grill
1587557,Truck,1420 CARROLL AVE,APPROVED,37.7235768564887,-122.39005910139932,12/30/2021 12:00:00 AM,11/15/2022 12:00:00 AM,Brazuca Grill
1587544,Truck,815 TENNESSEE ST,APPROVED,37.76150220396644,-122.389276996081,12/30/2021 12:00:00 AM,11/15/2022 12:00:00 AM,Brazuca Grill
1587553,Truck,3255 03RD ST,APPROVED,37.748445338837655,-122.38687903197965,12/30/2021 12:00:00 AM,11/15/2022 12:00:00 AM,Brazuca Grill
1587577,Truck,1650 20TH AVE,APPROVED,37.75798419052856,-122.43346578040662,12/30/2021 12:00:00 AM,11/15/2022 12:00:00 AM,Eva's Catering
1587563,Truck,500 FRANCISCO ST,APPROVED,37.80504950905885,-122.41433443693992,12/30/2021 12:00:00 AM,11/15/2022 12:00:00 AM,Brazuca Grill
1587536,Truck,700 PENNSYLVANIA AVE,APPROVED,37.75692365373408,-122.39354961053633,12/30/2021 12:00:00 AM,11/15/2022 12:00:00 AM,Brazuca Grill
1587534,Truck,150 OTIS ST,APPROVED,37.770683395042624,-122.42087956139908,12/30/2021 12:00:00 AM,11/15/2022 12:00:00 AM,Brazuca Grill
1514026,Truck,1500 TENNESSEE ST,EXPIRED,37.75224166848031,-122.38918854258944,03/30/2021 12:00:00 AM,11/15/2021 12:00:00 AM,F & C Catering
1587550,Truck,3000 03RD ST,APPROVED,37.7504641155225,-122.38790832590168,12/30/2021 12:00:00 AM,11/15/2022 12:00:00 AM,Brazuca Grill
1587543,Truck,790 TENNESSEE ST,APPROVED,37.761852397504114,-122.38993209325044,12/30/2021 12:00:00 AM,11/15/2022 12:00:00 AM,Brazuca Grill
1587579,Truck,630 BRANNAN ST,APPROVED,37.77609875315735,-122.40028723986816,12/30/2021 12:00:00 AM,11/15/2022 12:00:00 AM,Eva's Catering
1587545,Truck,640 TEXAS ST,APPROVED,37.75791705669008,-122.39547585248978,12/30/2021 12:00:00 AM,11/15/2022 12:00:00 AM,Brazuca Grill
1575196,Truck,190 NAPOLEON ST,APPROVED,37.74758627625646,-122.39886570079622,12/09/2021 12:00:00 AM,11/15/2022 12:00:00 AM,Park's Catering
1576232,Truck,3040 HARRISON ST,APPROVED,37.748848056566345,-122.4126189946552,12/16/2021 12:00:00 AM,11/15/2022 12:00:00 AM,Natan's Catering
1576212,Truck,Assessors Block 4046/Lot001,APPROVED,37.76200845803015,-122.38544181156826,12/16/2021 12:00:00 AM,11/15/2022 12:00:00 AM,Natan's Catering
1509787,Truck,3055 23RD ST,EXPIRED,37.753927735726535,-122.41332312961758,03/19/2021 12:00:00 AM,11/15/2021 12:00:00 AM,El Gallo Jiro
1585464,Truck,1 POST ST,APPROVED,37.788778723378,-122.40257456841074,12/17/2021 12:00:00 AM,11/15/2022 12:00:00 AM,Roadside Rotisserie Corporation / Country Grill
1587523,Truck,34 ELLIS ST,APPROVED,37.78756516537884,-122.40959283347962,12/30/2021 12:00:00 AM,11/15/2022 12:00:00 AM,"Chairman SF, LLC"
1587561,Truck,368 ELM ST,APPROVED,37.7813800275549,-122.42314384550636,12/30/2021 12:00:00 AM,11/15/2022 12:00:00 AM,Brazuca Grill
1591809,Push Cart,455 MARKET ST,SUSPEND,37.79094704192342,-122.39863358940372,,11/15/2022 12:00:00 AM,"Halal Cart, LLC"
1514031,Truck,1275 MINNESOTA ST,EXPIRED,37.754251708893726,-122.3893812288799,03/30/2021 12:00:00 AM,11/15/2021 12:00:00 AM,F & C Catering
1587575,Truck,1900 19TH AVE,APPROVED,37.75212416311866,-122.47587232222202,12/30/2021 12:00:00 AM,11/15/2022 12:00:00 AM,Eva's Catering
1587567,Truck,601 MARIPOSA ST,APPROVED,37.76405208992424,-122.39014439398792,12/30/2021 12:00:00 AM,11/15/2022 12:00:00 AM,Brazuca Grill
1587541,Truck,601 23RD ST,APPROVED,37.755030726766726,-122.38453073422282,12/30/2021 12:00:00 AM,11/15/2022 12:00:00 AM,Brazuca Grill
1587566,Truck,1575 INDIANA ST,APPROVED,37.75084960681246,-122.3900276155014,12/30/2021 12:00:00 AM,11/15/2022 12:00:00 AM,Brazuca Grill
1587581,Truck,2600 INGALLS ST,APPROVED,37.722629217598346,-122.39006184632665,12/30/2021 12:00:00 AM,11/15/2022 12:00:00 AM,Eva's Catering
1587552,Truck,3305 03RD ST,APPROVED,37.74383117213268,-122.37779736896212,12/30/2021 12:00:00 AM,11/15/2022 12:00:00 AM,Brazuca Grill
1587580,Truck,2045 EVANS AVE,APPROVED,37.747772091607466,-122.39703171897756,12/30/2021 12:00:00 AM,11/15/2022 12:00:00 AM,Eva's Catering
1514029,Truck,2800 03RD ST,EXPIRED,37.75371741690213,-122.3883590210436,03/30/2021 12:00:00 AM,11/15/2021 12:00:00 AM,F & C Catering
1591783,Push Cart,870 MARKET ST,SUSPEND,37.78511092044776,-122.40742266827704,,11/15/2022 12:00:00 AM,FRUITYMANIA
1587522,Truck,400 CALIFORNIA ST,APPROVED,0.0,0.0,12/30/2021 12:00:00 AM,11/15/2022 12:00:00 AM,"Chairman SF, LLC"
1587537,Truck,1082 PENNSYLVANIA AVE,APPROVED,37.75336082945507,-122.39304592079776,12/30/2021 12:00:00 AM,11/15/2022 12:00:00 AM,Brazuca Grill
1587524,Truck,536 MISSION ST,APPROVED,37.78924890841371,-122.39889295934644,12/30/2021 12:00:00 AM,11/15/2022 12:00:00 AM,"Chairman SF, LLC"
1591810,Truck,405 HOWARD ST,SUSPEND,37.788530010632506,-122.39514429387364,,11/15/2022 12:00:00 AM,Flavors of Africa
1591787,Push Cart,560 MISSION ST,SUSPEND,37.78886471534304,-122.39935935136296,,11/15/2022 12:00:00 AM,Faith Sandwich
1587578,Truck,530 05TH ST,APPROVED,37.77687638877653,-122.40025957520209,12/30/2021 12:00:00 AM,11/15/2022 12:00:00 AM,Eva's Catering
1174531,Push Cart,525 MARKET ST,REQUESTED,37.790406719940485,-122.39927588608576,,07/15/2019 12:00:00 AM,CC Acquisition LLC
963991,Truck,297 HARBOR RD,REQUESTED,37.73343881164075,-122.38046754951796,,03/15/2018 12:00:00 AM,Singh Brothers Ice Cream
1163794,Truck,1118 MISSION ST,REQUESTED,37.77915720534109,-122.41161543051868,,07/15/2019 12:00:00 AM,"SOHOMEI, LLC"
1163791,Truck,432 CLAY ST,REQUESTED,37.795105560981405,-122.40087663372626,,07/15/2019 12:00:00 AM,"SOHOMEI, LLC"
963985,Truck,1562 BANCROFT AVE,REQUESTED,37.725450702172296,-122.39199164141807,,03/15/2018 12:00:00 AM,Singh Brothers Ice Cream
1153604,Truck,240 02ND ST,REQUESTED,37.78594032017338,-122.39779993385848,,,SPUNBYSS
963995,Truck,195 KISKA RD,REQUESTED,37.72943828845401,-122.37665780072308,,03/15/2018 12:00:00 AM,Singh Brothers Ice Cream
1090089,Truck,1700 EVANS AVE,REQUESTED,37.744889286143,-122.39097197693538,,07/15/2019 12:00:00 AM,Tacos El Primo
963992,Truck,1191 QUESADA AVE,REQUESTED,37.72774449070106,-122.38210737524216,,03/15/2018 12:00:00 AM,Singh Brothers Ice Cream
1163792,Truck,1 THOMAS MORE WAY,REQUESTED,37.710003334289446,-122.47141191312888,,07/15/2019 12:00:00 AM,"SOHOMEI, LLC"
963980,Truck,2900 GRIFFITH ST,REQUESTED,37.71699129032396,-122.38959908416972,,03/15/2018 12:00:00 AM,Singh Brothers Ice Cream
1163783,Truck,1540 PINE ST,REQUESTED,37.78982691876333,-122.42112628905566,,07/15/2019 12:00:00 AM,"SOHOMEI, LLC"
1199051,Truck,400 CALIFORNIA ST,REQUESTED,37.79330427556103,-122.4014589984134,,07/15/2019 12:00:00 AM,Munch India
963978,Truck,1000 HOLLISTER AVE,REQUESTED,37.71893981909594,-122.39051787206591,,03/15/2018 12:00:00 AM,Singh Brothers Ice Cream
963979,Truck,1173 INGERSON AVE,REQUESTED,37.72044936265937,-122.39591501423702,,03/15/2018 12:00:00 AM,Singh Brothers Ice Cream
1090091,Truck,1495 WALLACE AVE,REQUESTED,37.72593049503994,-122.38921555942116,,07/15/2019 12:00:00 AM,Tacos El Primo
946047,Truck,1300 POLK ST,EXPIRED,37.78887711726664,-122.42009102003809,03/09/2017 12:00:00 AM,07/15/2018 12:00:00 AM,The Huge Hotdog Concession
1034228,,1850 MISSION ST,REQUESTED,37.76735502136977,-122.42051791382852,,,Julie's Hot Dogs
963984,Truck,1475 DONNER AVE,REQUESTED,37.72279368875932,-122.39171966647248,,03/15/2018 12:00:00 AM,Singh Brothers Ice Cream
1587549,Truck,2030 03RD ST,APPROVED,37.7636598013494,-122.38913385740454,12/30/2021 12:00:00 AM,11/15/2022 12:00:00 AM,Brazuca Grill
1587542,Truck,640 TENNESSEE ST,APPROVED,37.76354048392964,-122.39009664366294,12/30/2021 12:00:00 AM,11/15/2022 12:00:00 AM,Brazuca Grill
1039786,,2101 MISSION ST,REQUESTED,37.76317461963382,-122.41900951477052,,,Julie's Hot Dogs
1213203,Truck,75 WATERLOO ST,REQUESTED,37.7386499426562,-122.4061861142952,,,Marengo
963997,Truck,35 NIBBI CT,REQUESTED,37.710451691867526,-122.3961490789956,,03/15/2018 12:00:00 AM,Singh Brothers Ice Cream
948140,Push Cart,101 BAY SHORE BLVD,REQUESTED,37.746948295513135,-122.40339096031298,,03/15/2017 12:00:00 AM,Eli's Hot Dogs
963988,Truck,1101 PALOU AVE,REQUESTED,37.72867144281792,-122.38186508864092,,03/15/2018 12:00:00 AM,Singh Brothers Ice Cream
1163784,Truck,740 VALENCIA ST,REQUESTED,37.760957168278544,-122.42182419935828,,07/15/2019 12:00:00 AM,"SOHOMEI, LLC"
1200178,Truck,535 MISSION BAY BLVD SOUTH,EXPIRED,37.76912441216805,-122.39147491124584,08/07/2018 12:00:00 AM,07/15/2019 12:00:00 AM,SF Cart Project
949952,Truck,2598 HARRISON ST,EXPIRED,0.0,0.0,03/21/2017 12:00:00 AM,07/15/2018 12:00:00 AM,"Santana ESG, Inc."
1163799,Truck,599 MASONIC AVE,REQUESTED,37.78072314754437,-122.44778964047842,,07/15/2019 12:00:00 AM,"SOHOMEI, LLC"
1089698,Truck,2355 FOLSOM ST,REQUESTED,0.0,0.0,,07/15/2019 12:00:00 AM,El Tonayense #60
1163796,Truck,1580 DAVIDSON AVE,REQUESTED,37.74569302612038,-122.39071458482128,,07/15/2019 12:00:00 AM,"SOHOMEI, LLC"
963986,Truck,1550 WALLACE AVE,REQUESTED,37.72716806878196,-122.39002914870102,,03/15/2018 12:00:00 AM,Singh Brothers Ice Cream
1058991,Truck,601 MISSION ST,REQUESTED,37.78767164448786,-122.39976292583924,,,Ruru Juice LLC
953001,Push Cart,960 04TH ST,ISSUED,37.77433766636957,-122.39405328631256,04/09/2018 12:00:00 AM,07/15/2019 12:00:00 AM,Wonder Philly
963987,Truck,1104 FITZGERALD AVE,REQUESTED,37.72017472264928,-122.38940711434188,,03/15/2018 12:00:00 AM,Singh Brothers Ice Cream
1163405,Truck,2365 MISSION ST,EXPIRED,37.75924028515023,-122.4185441711166,05/17/2018 12:00:00 AM,07/15/2019 12:00:00 AM,Julie's Hot Dogs
1163788,Truck,690 MISSION ST,REQUESTED,0.0,0.0,,07/15/2019 12:00:00 AM,"SOHOMEI, LLC"
959619,Push Cart,298 KING ST,REQUESTED,37.77764220851001,-122.39341814593186,,03/15/2018 12:00:00 AM,"Kabob Trolley, LLC"
1219753,Truck,1133 MISSION ST,REQUESTED,37.77833025576586,-122.41151586526772,,07/15/2019 12:00:00 AM,"Kabob Trolley, LLC"
1090090,Truck,345 WILLIAMS AVE,REQUESTED,37.72980548057414,-122.39924710472444,,07/15/2019 12:00:00 AM,Tacos El Primo
963994,Truck,1309 INGALLS ST,REQUESTED,37.730374237862826,-122.38186187865688,,03/15/2018 12:00:00 AM,Singh Brothers Ice Cream
1174530,Push Cart,560 VALENCIA ST,REQUESTED,37.763858081360304,-122.4220826209929,,07/15/2019 12:00:00 AM,CC Acquisition LLC
953198,Truck,200 SHOTWELL ST,EXPIRED,37.76474535071949,-122.41656213947006,03/21/2017 12:00:00 AM,07/15/2018 12:00:00 AM,"Santana ESG, Inc."
1163786,Truck,544 02ND ST,REQUESTED,37.78242356329466,-122.39323639939816,,07/15/2019 12:00:00 AM,"SOHOMEI, LLC"
1042438,Truck,80 SUTTER ST,REQUESTED,37.79034624734142,-122.4018501909886,,,Ruru Juice LLC
963983,Truck,3444 JENNINGS ST,REQUESTED,37.71852204856645,-122.3966614444168,,03/15/2018 12:00:00 AM,Singh Brothers Ice Cream
1297766,Truck,1610 ARMSTRONG AVE,EXPIRED,37.726594363386816,-122.39235562563124,03/06/2020 12:00:00 AM,01/15/2021 12:00:00 AM,Tacos Lol-Tun
1089697,Truck,401 TREAT AVE,REQUESTED,37.763108325376656,-122.41345489002224,,07/15/2019 12:00:00 AM,El Tonayense #60
1163797,Truck,1570 BURKE AVE,REQUESTED,37.74475219161639,-122.38567924872147,,07/15/2019 12:00:00 AM,"SOHOMEI, LLC"
1163801,Truck,730 ELLIS ST,REQUESTED,37.78442073689951,-122.41840535178248,,07/15/2019 12:00:00 AM,"SOHOMEI, LLC"
1163795,Truck,1240 MINNESOTA ST,REQUESTED,37.75461495148918,-122.39038813202004,,07/15/2019 12:00:00 AM,"SOHOMEI, LLC"
1163789,Truck,85 02ND ST,REQUESTED,37.78845702882892,-122.3998841605663,,07/15/2019 12:00:00 AM,"SOHOMEI, LLC"
963990,Truck,2115 JENNINGS ST,REQUESTED,37.72672797825706,-122.38865842883156,,03/15/2018 12:00:00 AM,Singh Brothers Ice Cream
963981,Truck,800 JAMESTOWN AVE,REQUESTED,37.71644300214742,-122.38993787932108,,03/15/2018 12:00:00 AM,Singh Brothers Ice Cream
1163798,Truck,501 HOWARD ST,REQUESTED,0.0,0.0,,07/15/2019 12:00:00 AM,"SOHOMEI, LLC"
963996,Truck,1698 KIRKWOOD AVE,REQUESTED,37.73935716086751,-122.39152281175876,,03/15/2018 12:00:00 AM,Singh Brothers Ice Cream
1163800,Truck,2401 22ND ST,REQUESTED,37.75563700983233,-122.405101930379,,07/15/2019 12:00:00 AM,"SOHOMEI, LLC"
963993,Truck,1207 SHAFTER AVE,REQUESTED,37.72670827296216,-122.38362491720036,,03/15/2018 12:00:00 AM,Singh Brothers Ice Cream
1163785,Truck,1652 EDDY ST,REQUESTED,37.78159674576022,-122.43485778844028,,07/15/2019 12:00:00 AM,"SOHOMEI, LLC"
1090081,Truck,1717 HARRISON ST,REQUESTED,0.0,0.0,,07/15/2019 12:00:00 AM,El Tonayanse #4 / #36
963982,Truck,1060 KEY AVE,REQUESTED,37.71920021771331,-122.39597673109591,,03/15/2018 12:00:00 AM,Singh Brothers Ice Cream
1163790,Truck,Assessors Block 3902/Lot002,REQUESTED,37.76830699279999,-122.41200033609216,,07/15/2019 12:00:00 AM,"SOHOMEI, LLC"
1587570,Truck,1400 MINNESOTA ST,APPROVED,37.75207458620838,-122.39014490082212,12/30/2021 12:00:00 AM,11/15/2022 12:00:00 AM,Brazuca Grill
1535609,Truck,900 FRONT ST,EXPIRED,37.80022091559222,-122.39956901857713,07/02/2021 12:00:00 AM,11/15/2021 12:00:00 AM,Wu Wei LLC dba MoBowl
1587574,Truck,1100 ORTEGA ST,APPROVED,37.752660520412284,-122.4754735317814,12/30/2021 12:00:00 AM,11/15/2022 12:00:00 AM,Eva's Catering
1587568,Truck,1040 MARIPOSA ST,APPROVED,37.76420237830191,-122.39428524233958,12/30/2021 12:00:00 AM,11/15/2022 12:00:00 AM,Brazuca Grill
1587535,Truck,208 PENNSYLVANIA AVE,APPROVED,37.76346295990656,-122.39401294737716,12/30/2021 12:00:00 AM,11/15/2022 12:00:00 AM,Brazuca Grill
1587554,Truck,6000 03RD ST,APPROVED,37.72397990389285,-122.39590345491315,12/30/2021 12:00:00 AM,11/15/2022 12:00:00 AM,Brazuca Grill
1587548,Truck,2085 03RD ST,APPROVED,37.76329905604463,-122.3884823068054,12/30/2021 12:00:00 AM,11/15/2022 12:00:00 AM,Brazuca Grill
1575178,Truck,220 RANKIN ST,APPROVED,37.74646978811481,-122.3915152387716,12/09/2021 12:00:00 AM,11/15/2022 12:00:00 AM,Park's Catering
1535610,Truck,500 HOWARD ST,EXPIRED,0.0,0.0,07/02/2021 12:00:00 AM,11/15/2021 12:00:00 AM,Wu Wei LLC dba MoBowl
1576223,Truck,3201 03RD ST,APPROVED,37.748445338837655,-122.38687903197965,12/16/2021 12:00:00 AM,11/15/2022 12:00:00 AM,Natan's Catering
1587555,Truck,1315 ARMSTRONG AVE,APPROVED,37.723078757516,-122.38752570401662,12/30/2021 12:00:00 AM,11/15/2022 12:00:00 AM,Brazuca Grill
1591786,Push Cart,58 MAIN ST,SUSPEND,37.79210933860902,-122.39580386550163,,11/15/2022 12:00:00 AM,Faith Sandwich
1587560,Truck,1346 EDDY ST,APPROVED,37.78186711757412,-122.4298852476026,12/30/2021 12:00:00 AM,11/15/2022 12:00:00 AM,Brazuca Grill
1535608,Truck,253 DRUMM ST,EXPIRED,37.79612338025215,-122.39727320433803,07/02/2021 12:00:00 AM,11/15/2021 12:00:00 AM,Wu Wei LLC dba MoBowl
1587540,Truck,131 SHOTWELL ST,APPROVED,37.74793093611294,-122.41519315390948,12/30/2021 12:00:00 AM,11/15/2022 12:00:00 AM,Brazuca Grill
1575185,Truck,1650 DAVIDSON AVE,APPROVED,37.74671130304029,-122.3921503194526,12/09/2021 12:00:00 AM,11/15/2022 12:00:00 AM,Park's Catering
1514028,Truck,2890 03RD ST,EXPIRED,37.75310874987126,-122.38817020206616,03/30/2021 12:00:00 AM,11/15/2021 12:00:00 AM,F & C Catering
1591833,Push Cart,400 MONTGOMERY ST,SUSPEND,37.79314862698347,-122.4025671755779,,11/15/2022 12:00:00 AM,Halal Cart of San Francisco
1575182,Truck,1570 BURKE AVE,APPROVED,37.74475219161639,-122.38567924872147,12/09/2021 12:00:00 AM,11/15/2022 12:00:00 AM,Park's Catering
1591846,Push Cart,979 MARKET ST,SUSPEND,37.78228077241861,-122.40953118731998,,11/15/2022 12:00:00 AM,Golden Gate Halal Food
1575189,Truck,Assessors Block 4755/Lot049,APPROVED,37.726382932182176,-122.37843478266778,12/09/2021 12:00:00 AM,11/15/2022 12:00:00 AM,Park's Catering
1515717,Push Cart,1 MARKET ST,EXPIRED,37.79387150715064,-122.39486523862108,04/09/2021 12:00:00 AM,11/15/2021 12:00:00 AM,Treats by the Bay LLC
1575184,Truck,1575 BURKE AVE,APPROVED,37.74417844737573,-122.38671592975922,12/09/2021 12:00:00 AM,11/15/2022 12:00:00 AM,Park's Catering
1575181,Truck,2323 CESAR CHAVEZ ST,APPROVED,37.748801377714486,-122.40055245878467,12/09/2021 12:00:00 AM,11/15/2022 12:00:00 AM,Park's Catering
1524385,Push Cart,2301 MISSION ST,EXPIRED,37.76008693198698,-122.41880648110114,05/17/2021 12:00:00 AM,11/15/2021 12:00:00 AM,Leo's Hot Dogs
1575179,Truck,3450 03RD ST,APPROVED,37.74572922168844,-122.3877976508368,12/09/2021 12:00:00 AM,11/15/2022 12:00:00 AM,Park's Catering
1514024,Truck,Assessors Block /Lot,EXPIRED,0.0,0.0,03/30/2021 12:00:00 AM,11/15/2021 12:00:00 AM,F & C Catering
1514030,Truck,900 MINNESOTA ST,EXPIRED,0.0,0.0,03/30/2021 12:00:00 AM,11/15/2021 12:00:00 AM,F & C Catering
1514027,Truck,700 25TH ST,EXPIRED,37.75338080997486,-122.38636768585714,03/30/2021 12:00:00 AM,11/15/2021 12:00:00 AM,F & C Catering
1575187,Truck,1801 EVANS AVE,APPROVED,37.74459119509166,-122.39307688085802,12/09/2021 12:00:00 AM,11/15/2022 12:00:00 AM,Park's Catering
1575195,Truck,250 NAPOLEON ST,APPROVED,37.746755554477474,-122.40090627035904,12/09/2021 12:00:00 AM,11/15/2022 12:00:00 AM,Park's Catering
1591812,Truck,560 MISSION ST,SUSPEND,37.78886471534304,-122.39935935136296,,11/15/2022 12:00:00 AM,Flavors of Africa
1575193,Truck,2525 MARIN ST,APPROVED,37.74761607223309,-122.40197697572432,12/09/2021 12:00:00 AM,11/15/2022 12:00:00 AM,Park's Catering
1514025,Truck,898 PENNSYLVANIA AVE,EXPIRED,37.755534471603866,-122.39392527753924,03/30/2021 12:00:00 AM,11/15/2021 12:00:00 AM,F & C Catering
1585465,Truck,333 BRANNAN ST,APPROVED,37.780918000993,-122.39241698313292,12/17/2021 12:00:00 AM,11/15/2022 12:00:00 AM,Roadside Rotisserie Corporation / Country Grill
1575191,Truck,Assessors Block 4645/Lot015,APPROVED,37.73213495192223,-122.37539807856734,12/09/2021 12:00:00 AM,11/15/2022 12:00:00 AM,Park's Catering
1585470,Truck,225 BATTERY ST,APPROVED,37.79344652781607,-122.40034367559196,12/17/2021 12:00:00 AM,11/15/2022 12:00:00 AM,Roadside Rotisserie Corporation / Country Grill
1591811,Truck,555 MISSION ST,SUSPEND,37.78844615690132,-122.3986412420388,,11/15/2022 12:00:00 AM,Flavors of Africa
1575198,Truck,220 NEWHALL ST,APPROVED,37.74301424963152,-122.38446024493484,12/09/2021 12:00:00 AM,11/15/2022 12:00:00 AM,Park's Catering
1575183,Truck,1555 BURKE AVE,APPROVED,37.74371347536804,-122.38596479003613,12/09/2021 12:00:00 AM,11/15/2022 12:00:00 AM,Park's Catering
1591807,Push Cart,1 MARKET ST,SUSPEND,37.79387150715064,-122.39486523862108,,11/15/2022 12:00:00 AM,"Halal Cart, LLC"
1535607,Truck,370 DRUMM ST,EXPIRED,37.79691371248354,-122.39665067526364,07/02/2021 12:00:00 AM,11/15/2021 12:00:00 AM,Wu Wei LLC dba MoBowl
1575197,Truck,330 NEWHALL ST,APPROVED,37.74298987477535,-122.386773267176,12/09/2021 12:00:00 AM,11/15/2022 12:00:00 AM,Park's Catering
1575186,Truck,1000 EVANS AVE,APPROVED,37.73772686659576,-122.37657291457296,12/09/2021 12:00:00 AM,11/15/2022 12:00:00 AM,Park's Catering
1591779,Truck,30 GROVE ST,SUSPEND,37.779159119969,-122.4158078824267,,11/15/2022 12:00:00 AM,Street Meet
1591781,Truck,777 MARIPOSA ST,SUSPEND,37.76381127729062,-122.3912653505994,,11/15/2022 12:00:00 AM,Street Meet
1591847,Push Cart,1169 MARKET ST,SUSPEND,0.0,0.0,,11/15/2022 12:00:00 AM,Golden Gate Halal Food
1575188,Truck,2020 EVANS AVE,APPROVED,0.0,0.0,12/09/2021 12:00:00 AM,11/15/2022 12:00:00 AM,Park's Catering
1575192,Truck,10 LOOMIS ST,APPROVED,37.74378392338268,-122.40378882961043,12/09/2021 12:00:00 AM,11/15/2022 12:00:00 AM,Park's Catering
1575190,Truck,Assessors Block 4644/Lot008,APPROVED,37.730906150359694,-122.37330257748522,12/09/2021 12:00:00 AM,11/15/2022 12:00:00 AM,Park's Catering
1591832,Push Cart,532 MARKET ST,SUSPEND,37.79054831818324,-122.40033367367876,,11/15/2022 12:00:00 AM,Shah's Halal Food
1591808,Push Cart,400 MONTGOMERY ST,SUSPEND,37.79314862698347,-122.4025671755779,,11/15/2022 12:00:00 AM,"Halal Cart, LLC"
1591784,Push Cart,801 MARKET ST,SUSPEND,37.784990279306456,-122.40567662907203,,11/15/2022 12:00:00 AM,FRUITYMANIA
1575199,Truck,300 NEWHALL ST,APPROVED,37.74322468386162,-122.38534297342116,12/09/2021 12:00:00 AM,11/15/2022 12:00:00 AM,Park's Catering
1575180,Truck,3801 03RD ST,APPROVED,37.741026207788686,-122.38779292799352,12/09/2021 12:00:00 AM,11/15/2022 12:00:00 AM,Park's Catering
1591780,Truck,100 LARKIN ST,SUSPEND,37.779159119969,-122.4158078824267,,11/15/2022 12:00:00 AM,Street Meet
1591834,Push Cart,1 MARKET ST,SUSPEND,37.79387150715064,-122.39486523862108,,11/15/2022 12:00:00 AM,Halal Cart of San Francisco
1591997,Truck,1450 MISSION ST,SUSPEND,37.77522830783405,-122.41746613186956,,11/15/2022 12:00:00 AM,Lerso
1575177,Truck,525 PHELPS ST,APPROVED,37.74176064966551,-122.3890979701946,12/09/2021 12:00:00 AM,11/15/2022 12:00:00 AM,Park's Catering
1575194,Truck,1200 MISSISSIPPI ST,APPROVED,37.75169103572294,-122.3943742132628,12/09/2021 12:00:00 AM,11/15/2022 12:00:00 AM,Park's Catering
1576237,Truck,350 KANSAS ST,APPROVED,37.76537066931712,-122.40390784821224,12/16/2021 12:00:00 AM,11/15/2022 12:00:00 AM,Natan's Catering
1576239,Truck,888 MARIN ST,APPROVED,37.74945832902701,-122.38508133967832,12/16/2021 12:00:00 AM,11/15/2022 12:00:00 AM,Natan's Catering
1576218,Truck,Assessors Block 4241/Lot002,APPROVED,37.75334000118106,-122.38412838423729,12/16/2021 12:00:00 AM,11/15/2022 12:00:00 AM,Natan's Catering
1576225,Truck,Assessors Block 4315/Lot03008,APPROVED,0.0,0.0,12/16/2021 12:00:00 AM,11/15/2022 12:00:00 AM,Natan's Catering
1576229,Truck,1801 EVANS AVE,APPROVED,37.74459119509166,-122.39307688085802,12/16/2021 12:00:00 AM,11/15/2022 12:00:00 AM,Natan's Catering
1576228,Truck,146 CONNECTICUT ST,APPROVED,37.76444729556189,-122.397987371508,12/16/2021 12:00:00 AM,11/15/2022 12:00:00 AM,Natan's Catering
1576230,Truck,2045 EVANS AVE,APPROVED,37.747772091607466,-122.39703171897756,12/16/2021 12:00:00 AM,11/15/2022 12:00:00 AM,Natan's Catering
1576231,Truck,950 HARRISON ST,APPROVED,37.77838861578656,-122.40319178322908,12/16/2021 12:00:00 AM,11/15/2022 12:00:00 AM,Natan's Catering
1576375,Truck,425 CALIFORNIA ST,APPROVED,37.79279574157871,-122.40135328093122,12/16/2021 12:00:00 AM,11/15/2022 12:00:00 AM,San Francisco's Hometown Creamery
1576224,Truck,400 ALEMANY BLVD,APPROVED,37.73314239514255,-122.41456863241858,12/16/2021 12:00:00 AM,11/15/2022 12:00:00 AM,Natan's Catering
1576236,Truck,Assessors Block 4296/Lot010,APPROVED,37.75240499247832,-122.38700019629786,12/16/2021 12:00:00 AM,11/15/2022 12:00:00 AM,Natan's Catering
1576386,Truck,301 PINE ST,APPROVED,37.79183426305553,-122.40127961659626,12/16/2021 12:00:00 AM,11/15/2022 12:00:00 AM,San Francisco's Hometown Creamery
1576214,Truck,Assessors Block 4103/Lot023A,APPROVED,37.758303395642486,-122.39351405481676,12/16/2021 12:00:00 AM,11/15/2022 12:00:00 AM,Natan's Catering
1576238,Truck,3335 17TH ST,APPROVED,37.76315639322651,-122.42032223152648,12/16/2021 12:00:00 AM,11/15/2022 12:00:00 AM,Natan's Catering
1576211,Truck,Assessors Block 5369/Lot003,APPROVED,37.73811777159187,-122.40441846721173,12/16/2021 12:00:00 AM,11/15/2022 12:00:00 AM,Natan's Catering
1576207,Truck,Assessors Block 7295/Lot022,APPROVED,37.7300036831892,-122.4781863254146,12/16/2021 12:00:00 AM,11/15/2022 12:00:00 AM,Natan's Catering
1576208,Truck,Assessors Block 4172/Lot010,APPROVED,37.75712456038606,-122.3885295152567,12/16/2021 12:00:00 AM,11/15/2022 12:00:00 AM,Natan's Catering
1576227,Truck,1140 07TH ST,APPROVED,37.7682493867935,-122.39843065021364,12/16/2021 12:00:00 AM,11/15/2022 12:00:00 AM,Natan's Catering
1576240,Truck,151 MENDELL ST,APPROVED,37.742820234675946,-122.38284735551784,12/16/2021 12:00:00 AM,11/15/2022 12:00:00 AM,Natan's Catering
1576210,Truck,Assessors Block 4227/Lot012,APPROVED,37.75315510671546,-122.3911741844557,12/16/2021 12:00:00 AM,11/15/2022 12:00:00 AM,Natan's Catering
1576387,Truck,340 POST ST,APPROVED,37.78869699864027,-122.40747042036952,12/16/2021 12:00:00 AM,11/15/2022 12:00:00 AM,San Francisco's Hometown Creamery
1576234,Truck,Assessors Block 8722/Lot001,APPROVED,37.76799554568555,-122.3875494265472,12/16/2021 12:00:00 AM,11/15/2022 12:00:00 AM,Natan's Catering
1576206,Truck,Assessors Block 5598/Lot031,APPROVED,37.74030387280596,-122.4060597434942,12/16/2021 12:00:00 AM,11/15/2022 12:00:00 AM,Natan's Catering
1576374,Truck,1 MONTGOMERY ST,APPROVED,37.78924953407508,-122.40241859729358,12/16/2021 12:00:00 AM,11/15/2022 12:00:00 AM,San Francisco's Hometown Creamery
1576222,Truck,2101 03RD ST,APPROVED,0.0,0.0,12/16/2021 12:00:00 AM,11/15/2022 12:00:00 AM,Natan's Catering
1576216,Truck,50 QUINT ST,APPROVED,37.74647050664712,-122.38899080865444,12/16/2021 12:00:00 AM,11/15/2022 12:00:00 AM,Natan's Catering
1576241,Truck,555 MISSOURI ST,APPROVED,37.75930376638337,-122.39590223123568,12/16/2021 12:00:00 AM,11/15/2022 12:00:00 AM,Natan's Catering
1576235,Truck,Assessors Block 3941/Lot001,APPROVED,37.764741322674965,-122.38712481217912,12/16/2021 12:00:00 AM,11/15/2022 12:00:00 AM,Natan's Catering
1576215,Truck,66 POTRERO AVE,APPROVED,37.76854328902419,-122.40849289243862,12/16/2021 12:00:00 AM,11/15/2022 12:00:00 AM,Natan's Catering
1576221,Truck,1650 03RD ST,APPROVED,37.76912441216805,-122.39147491124584,12/16/2021 12:00:00 AM,11/15/2022 12:00:00 AM,Natan's Catering
1576213,Truck,Assessors Block 5216/Lot030,APPROVED,37.74540642941645,-122.39008122484672,12/16/2021 12:00:00 AM,11/15/2022 12:00:00 AM,Natan's Catering
1576205,Truck,Assessors Block 8722/Lot003,APPROVED,37.76743301733124,-122.39214911417169,12/16/2021 12:00:00 AM,11/15/2022 12:00:00 AM,Natan's Catering
1576217,Truck,435 23RD ST,APPROVED,37.755030726766726,-122.38453073422282,12/16/2021 12:00:00 AM,11/15/2022 12:00:00 AM,Natan's Catering
1576233,Truck,600 16TH ST,APPROVED,37.76746628714475,-122.39086028943052,12/16/2021 12:00:00 AM,11/15/2022 12:00:00 AM,Natan's Catering
1576226,Truck,1580 BURKE AVE,APPROVED,37.74475219161639,-122.38567924872147,12/16/2021 12:00:00 AM,11/15/2022 12:00:00 AM,Natan's Catering
1576209,Truck,Assessors Block 4058/Lot010,APPROVED,37.76118299450509,-122.38811870407658,12/16/2021 12:00:00 AM,11/15/2022 12:00:00 AM,Natan's Catering
1576220,Truck,Assessors Block 4281a/Lot012A,APPROVED,37.75076076946013,-122.40154029135653,12/16/2021 12:00:00 AM,11/15/2022 12:00:00 AM,Natan's Catering
1576219,Truck,Assessors Block 8732/Lot001,APPROVED,37.77070297609754,-122.3907903555664,12/16/2021 12:00:00 AM,11/15/2022 12:00:00 AM,Natan's Catering
1577123,Truck,85 02ND ST,APPROVED,37.78845702882892,-122.3998841605663,12/16/2021 12:00:00 AM,11/15/2022 12:00:00 AM,El Calamar Perubian Food Truck
955616,Truck,928 TOLAND ST,REQUESTED,37.74162368623527,-122.4015472063967,,,Tacos Santo Toribio
1367290,,580 HOWARD ST,REQUESTED,37.7873042488646,-122.39803725191236,,07/15/2020 12:00:00 AM,Star Taco
1336732,Truck,2920 03RD ST,EXPIRED,37.7519716288769,-122.38796548380076,07/10/2019 12:00:00 AM,01/15/2021 12:00:00 AM,Quan Catering
1334819,,4384 MISSION ST,REQUESTED,37.727566537591706,-122.4329697019889,,,tacos y pupusas los trinos
934518,Truck,115 SANSOME ST,EXPIRED,37.79142654133214,-122.40103785668796,03/16/2017 12:00:00 AM,07/15/2018 12:00:00 AM,Scotch Bonnet
1341056,Push Cart,773 MARKET ST,EXPIRED,37.78539563944047,-122.40439104283044,07/29/2019 12:00:00 AM,01/15/2021 12:00:00 AM,Kettle Corn Star
1336744,Truck,2111 LANE ST,EXPIRED,37.72878795772644,-122.39229482070176,07/10/2019 12:00:00 AM,01/15/2021 12:00:00 AM,Quan Catering
1337439,Truck,1450 WALLACE AVE,EXPIRED,37.72614569247294,-122.38822774090347,07/12/2019 12:00:00 AM,01/15/2021 12:00:00 AM,Liang Bai Ping
735318,Push Cart,5 THE EMBARCADERO,REQUESTED,37.794331003246846,-122.39581105302317,,03/15/2016 12:00:00 AM,Ziaurehman Amini
812017,Truck,290 SUTTER ST,REQUESTED,37.78991386713444,-122.40523289252366,,,SF Street Food
1416733,Truck,1 BUSH ST,REQUESTED,37.79092150726921,-122.4001004237385,,07/15/2020 12:00:00 AM,"Off the Grid Services, LLC"
1344202,Push Cart,900 BEACH ST,REQUESTED,37.80774328844553,-122.42414994486982,,07/15/2020 12:00:00 AM,"Bay Area Dots, LLC"
1337428,Truck,1145 REVERE AVE,EXPIRED,37.72659047951941,-122.3817522114059,07/12/2019 12:00:00 AM,01/15/2021 12:00:00 AM,Liang Bai Ping
1265606,Push Cart,384 POST ST,REQUESTED,37.78862121908618,-122.40806890640653,,01/07/2020 12:00:00 AM,"San Francisco Carts & Concessions, Inc. DBA Stanley's Steamers Hot Dogs"
1527317,Truck,15 MARINA BLVD,REQUESTED,37.80457786909011,-122.43301077434302,,11/15/2021 12:00:00 AM,"BOWL'D ACAI, LLC."
1334599,Truck,551 03RD ST,EXPIRED,37.780647210048365,-122.39462918166164,07/02/2019 12:00:00 AM,01/15/2021 12:00:00 AM,Tacos El Ojo De Agua
453013,,1700 JERROLD AVE,EXPIRED,37.7424951959228,-122.39161759509756,02/07/2018 12:00:00 AM,07/15/2018 12:00:00 AM,Tacos Santana
1337431,Truck,1127 SHAFTER AVE,EXPIRED,37.7259455580465,-122.38228115325305,07/12/2019 12:00:00 AM,01/15/2021 12:00:00 AM,Liang Bai Ping
1332938,Truck,420 BERRY ST,EXPIRED,37.77200865646878,-122.3990838454733,06/26/2019 12:00:00 AM,01/15/2021 12:00:00 AM,Mini Mobile Food Catering
1336739,Truck,722 BRANNAN ST,EXPIRED,37.77444911077535,-122.402087236063,07/10/2019 12:00:00 AM,01/15/2021 12:00:00 AM,Quan Catering
1336731,Truck,3305 03RD ST,EXPIRED,37.74383117213268,-122.37779736896212,07/10/2019 12:00:00 AM,01/15/2021 12:00:00 AM,Quan Catering
755221,,4650 MISSION ST,REQUESTED,37.72366127950527,-122.43594382523996,,03/15/2017 12:00:00 AM,Fruteria Serrano
848185,Truck,4705 03RD ST,REQUESTED,37.73500422895143,-122.39017246969968,,03/15/2017 12:00:00 AM,Reecees Soulicious
848080,Truck,1700 EVANS AVE,SUSPEND,37.744889286143,-122.39097197693538,08/01/2017 12:00:00 AM,03/15/2018 12:00:00 AM,Taqueria Lolita
1010174,Truck,2386 MISSION ST,REQUESTED,37.75887999201479,-122.41937920298372,,,Julie's Hot Dogs
1265597,Push Cart,Assessors Block /Lot,REQUESTED,0.0,0.0,,01/07/2020 12:00:00 AM,"San Francisco Carts & Concessions, Inc. DBA Stanley's Steamers Hot Dogs"
627558,Truck,Assessors Block /Lot,REQUESTED,0.0,0.0,,,"Off the Grid Services, LLC"
1337442,Truck,1420 YOSEMITE AVE,EXPIRED,37.725181700728754,-122.38819268844397,07/12/2019 12:00:00 AM,01/15/2021 12:00:00 AM,Liang Bai Ping
1337450,Truck,1377 FELL ST,EXPIRED,37.773287940470354,-122.44003231663504,07/12/2019 12:00:00 AM,01/15/2021 12:00:00 AM,Liang Bai Ping
1336730,Truck,222 02ND ST,EXPIRED,37.78631979828399,-122.39823507424884,07/10/2019 12:00:00 AM,01/15/2021 12:00:00 AM,Quan Catering
1332937,Truck,355 BERRY ST,EXPIRED,37.77236391476725,-122.39704097036318,06/26/2019 12:00:00 AM,01/15/2021 12:00:00 AM,Mini Mobile Food Catering
364218,Push Cart,79 NEW MONTGOMERY ST,SUSPEND,37.78788969990609,-122.40053532677749,,,The Chai Cart
931093,Truck,2401 36TH AVE,REQUESTED,37.7412902847707,-122.49437792043544,,01/30/2018 12:00:00 AM,Swell Cream & Coffee
1336736,Truck,2190 CESAR CHAVEZ ST,EXPIRED,37.75023688477907,-122.3978180317186,07/10/2019 12:00:00 AM,01/15/2021 12:00:00 AM,Quan Catering
1337430,Truck,1135 REVERE AVE,EXPIRED,37.72647071624597,-122.38154121915817,07/12/2019 12:00:00 AM,01/15/2021 12:00:00 AM,Liang Bai Ping
1552756,Truck,2109 MISSION ST,REQUESTED,37.76317461963382,-122.41900951477052,,11/15/2021 12:00:00 AM,Corazon Maya
997504,Truck,Assessors Block /Lot,REQUESTED,0.0,0.0,,07/19/2017 12:00:00 AM,Munch India
1337429,Truck,1160 REVERE AVE,EXPIRED,37.727234007495866,-122.38181551187014,07/12/2019 12:00:00 AM,01/15/2021 12:00:00 AM,Liang Bai Ping
1332944,Truck,355 FREMONT ST,EXPIRED,37.78732241931987,-122.39222370638346,06/26/2019 12:00:00 AM,01/15/2021 12:00:00 AM,Mini Mobile Food Catering
1337455,Truck,2115 JENNINGS ST,EXPIRED,37.72672797825706,-122.38865842883156,07/12/2019 12:00:00 AM,01/15/2021 12:00:00 AM,Liang Bai Ping
1337441,Truck,1335 YOSEMITE AVE,EXPIRED,37.72387884083248,-122.3870108787852,07/12/2019 12:00:00 AM,01/15/2021 12:00:00 AM,Liang Bai Ping
1332941,Truck,1690 FOLSOM ST,EXPIRED,37.77013758050153,-122.41598340280362,06/26/2019 12:00:00 AM,01/15/2021 12:00:00 AM,Mini Mobile Food Catering
1336729,Truck,500 SELBY ST,EXPIRED,37.74449821321117,-122.39695540584154,07/10/2019 12:00:00 AM,01/15/2021 12:00:00 AM,Quan Catering
751253,Truck,1800 FOLSOM ST,REQUESTED,37.76785244271805,-122.41610489253188,,,Pipo's Grill
1336738,Truck,400 BEALE ST,EXPIRED,37.78690491945698,-122.39092026296215,07/10/2019 12:00:00 AM,01/15/2021 12:00:00 AM,Quan Catering
1332940,Truck,355 11TH ST,EXPIRED,37.77146721590103,-122.41287229420976,06/26/2019 12:00:00 AM,01/15/2021 12:00:00 AM,Mini Mobile Food Catering
773095,Push Cart,10 SOUTH VAN NESS AVE,REQUESTED,37.77425926306004,-122.41948598839828,,,Athena SF Gyro
1552671,Truck,255 BATTERY ST,REQUESTED,37.79344652781607,-122.40034367559196,,11/15/2021 12:00:00 AM,Izzy's Cheesesteaks
1337926,,80 SUTTER ST,REQUESTED,37.79034624734142,-122.4018501909886,,,La Jefa
934552,Truck,654 MISSION ST,EXPIRED,37.78718284771541,-122.40123480885065,08/29/2017 12:00:00 AM,07/15/2018 12:00:00 AM,"Casey's Pizza, LLC"
1337440,Truck,1500 WALLACE AVE,EXPIRED,37.726725793811774,-122.38924985802704,07/12/2019 12:00:00 AM,01/15/2021 12:00:00 AM,Liang Bai Ping
1337432,Truck,1180 THOMAS AVE,EXPIRED,37.72612523964504,-122.38319932723888,07/12/2019 12:00:00 AM,01/15/2021 12:00:00 AM,Liang Bai Ping
1337787,Truck,1500 GENEVA AVE,REQUESTED,37.712302604744416,-122.43164419037294,,07/15/2020 12:00:00 AM,Giant Burrito
453012,,2101 CARROLL AVE,EXPIRED,37.73022168130492,-122.40297852668596,02/07/2018 12:00:00 AM,07/15/2018 12:00:00 AM,Tacos Santana
1336735,Truck,1301 CESAR CHAVEZ ST,EXPIRED,37.74925585952909,-122.3909753795768,07/10/2019 12:00:00 AM,01/15/2021 12:00:00 AM,Quan Catering
934517,Truck,25 MONTGOMERY ST,EXPIRED,37.78948669612784,-122.40246743800448,03/16/2017 12:00:00 AM,07/15/2018 12:00:00 AM,Scotch Bonnet
1089427,Push Cart,50 CALIFORNIA ST,REQUESTED,37.79405318373291,-122.39734769332576,,02/28/2019 12:00:00 AM,Halal Food
934554,Truck,100 SPEAR ST,EXPIRED,37.792150548481686,-122.39399997405944,08/29/2017 12:00:00 AM,07/15/2018 12:00:00 AM,"Casey's Pizza, LLC"
934551,Truck,368 FELL ST,EXPIRED,37.77604870809225,-122.42393921117214,08/29/2017 12:00:00 AM,07/15/2018 12:00:00 AM,"Casey's Pizza, LLC"
1337448,Truck,1475 CARROLL AVE,EXPIRED,37.72325986632415,-122.3911728859688,07/12/2019 12:00:00 AM,01/15/2021 12:00:00 AM,Liang Bai Ping
934555,Truck,231 SANSOME ST,EXPIRED,37.792609401119016,-122.40131490545149,08/29/2017 12:00:00 AM,07/15/2018 12:00:00 AM,"Casey's Pizza, LLC"
1337436,Truck,1351 UNDERWOOD AVE,EXPIRED,37.7270146636245,-122.38749735902202,07/12/2019 12:00:00 AM,01/15/2021 12:00:00 AM,Liang Bai Ping
1332948,Truck,491 BAY SHORE BLVD,EXPIRED,0.0,0.0,06/26/2019 12:00:00 AM,01/15/2021 12:00:00 AM,Mini Mobile Food Catering
1337427,Truck,1031 QUESADA AVE,EXPIRED,37.72578913981244,-122.37897271962358,07/12/2019 12:00:00 AM,01/15/2021 12:00:00 AM,Liang Bai Ping
1337453,Truck,1515 GRIFFITH ST,EXPIRED,37.72531943367549,-122.3813892094274,07/12/2019 12:00:00 AM,01/15/2021 12:00:00 AM,Liang Bai Ping
773105,Push Cart,699 08TH ST,REQUESTED,37.771021999243686,-122.4035462541838,,,Athena SF Gyro
839523,Push Cart,1 FRONT ST,REQUESTED,37.791757205944414,-122.39889763689186,,,Halal Cart of San Francisco
837171,Push Cart,Assessors Block /Lot,REQUESTED,0.0,0.0,,,Chilifruit
1336733,Truck,3433 03RD ST,EXPIRED,0.0,0.0,07/10/2019 12:00:00 AM,01/15/2021 12:00:00 AM,Quan Catering
1336921,Push Cart,865 MARKET ST,EXPIRED,37.78394690797423,-122.40715834498369,07/11/2019 12:00:00 AM,01/15/2021 12:00:00 AM,Kettle Corn Star
1265569,Push Cart,331 POWELL ST,REQUESTED,37.78775529896748,-122.40878221396504,,01/07/2020 12:00:00 AM,"San Francisco Carts & Concessions, Inc. DBA Stanley's Steamers Hot Dogs"
1336734,Truck,201 ALABAMA ST,EXPIRED,37.76779784361899,-122.4120963188614,07/10/2019 12:00:00 AM,01/15/2021 12:00:00 AM,Quan Catering
453014,,2142 JERROLD AVE,EXPIRED,37.74451858266488,-122.39894084662792,02/07/2018 12:00:00 AM,07/15/2018 12:00:00 AM,Tacos Santana
1337443,Truck,1430 YOSEMITE AVE,EXPIRED,37.72549804795053,-122.38836915044176,07/12/2019 12:00:00 AM,01/15/2021 12:00:00 AM,Liang Bai Ping
1332947,Truck,Assessors Block 4341/Lot001,EXPIRED,37.748950363427056,-122.40149318970822,06/26/2019 12:00:00 AM,01/15/2021 12:00:00 AM,Mini Mobile Food Catering
1337456,Truck,201 FOLSOM ST,EXPIRED,37.78814528329282,-122.39118192026297,07/12/2019 12:00:00 AM,01/15/2021 12:00:00 AM,Liang Bai Ping
1353436,Truck,306 VALENCIA ST,EXPIRED,37.76785526935426,-122.42248440416164,09/06/2019 12:00:00 AM,01/15/2021 12:00:00 AM,Alfaro Truck
1337451,Truck,Assessors Block 3720/Lot001,EXPIRED,37.78969136758703,-122.3965956370838,07/12/2019 12:00:00 AM,01/15/2021 12:00:00 AM,Liang Bai Ping
839524,Push Cart,555 MARKET ST,REQUESTED,37.78988987820978,-122.39993041135052,,,Halal Cart of San Francisco
1544281,,500 FLORIDA ST,REQUESTED,37.762590159713945,-122.41148385548222,,11/15/2021 12:00:00 AM,Boulangerie La Camionnette
1340418,Push Cart,404 OCTAVIA ST,EXPIRED,37.77603906266594,-122.42417557149162,07/26/2019 12:00:00 AM,01/15/2021 12:00:00 AM,Let's Be Frank
1141511,Push Cart,Assessors Block /Lot,REQUESTED,0.0,0.0,,,Khalid M Malik
1047771,,425 DIVISADERO ST,REQUESTED,37.77336405319086,-122.43787522530336,,,The Chef Station
1332936,Truck,Assessors Block 3905/Lot011,EXPIRED,37.76855707131207,-122.40961023629804,06/26/2019 12:00:00 AM,01/15/2021 12:00:00 AM,Mini Mobile Food Catering
1337435,Truck,1389 UNDERWOOD AVE,EXPIRED,37.72711043338281,-122.3882612881442,07/12/2019 12:00:00 AM,01/15/2021 12:00:00 AM,Liang Bai Ping
934519,Truck,430 CALIFORNIA ST,EXPIRED,37.793262206923096,-122.4017890913628,03/16/2017 12:00:00 AM,07/15/2018 12:00:00 AM,Scotch Bonnet
1534033,,65 MINNA ST,REQUESTED,37.7879095795372,-122.39836076940526,,11/15/2021 12:00:00 AM,"Off the Grid Services, LLC"
1337449,Truck,1450 DONNER AVE,EXPIRED,37.72305650933894,-122.39111194064196,07/12/2019 12:00:00 AM,01/15/2021 12:00:00 AM,Liang Bai Ping
1337452,Truck,1300 GRIFFITH ST,EXPIRED,37.727086633951366,-122.38107444874925,07/12/2019 12:00:00 AM,01/15/2021 12:00:00 AM,Liang Bai Ping
1332945,Truck,401 HARRISON ST,EXPIRED,0.0,0.0,06/26/2019 12:00:00 AM,01/15/2021 12:00:00 AM,Mini Mobile Food Catering
1337444,Truck,1440 BANCROFT AVE,EXPIRED,37.72417289276133,-122.38973542901095,07/12/2019 12:00:00 AM,01/15/2021 12:00:00 AM,Liang Bai Ping
1337438,Truck,1337 VAN DYKE AVE,EXPIRED,37.7262494817986,-122.38781536801432,07/12/2019 12:00:00 AM,01/15/2021 12:00:00 AM,Liang Bai Ping
1332935,Truck,245 01ST ST,EXPIRED,37.7879000978181,-122.39459403620496,06/26/2019 12:00:00 AM,01/15/2021 12:00:00 AM,Mini Mobile Food Catering
1336740,Truck,645 BRYANT ST,EXPIRED,37.77826657669456,-122.3988359224453,07/10/2019 12:00:00 AM,01/15/2021 12:00:00 AM,Quan Catering
934302,Push Cart,954 MARKET ST,SUSPEND,37.78317542073363,-122.40956831554728,03/15/2017 12:00:00 AM,07/15/2018 12:00:00 AM,Yummy Hot Dogs
812018,Truck,667 MISSION ST,REQUESTED,37.7865580501799,-122.40103337534973,,,SF Street Food
931094,Truck,2450 TARAVAL ST,REQUESTED,37.74255037355925,-122.49267708221484,,01/30/2018 12:00:00 AM,Swell Cream & Coffee
1336742,Truck,50 CALIFORNIA ST,EXPIRED,37.79405318373291,-122.39734769332576,07/10/2019 12:00:00 AM,01/15/2021 12:00:00 AM,Quan Catering
1265607,Push Cart,Assessors Block /Lot,REQUESTED,0.0,0.0,,01/07/2020 12:00:00 AM,"San Francisco Carts & Concessions, Inc. DBA Stanley's Steamers Hot Dogs"
1332943,Truck,350 FREMONT ST,EXPIRED,37.787076530384326,-122.39298262422754,06/26/2019 12:00:00 AM,01/15/2021 12:00:00 AM,Mini Mobile Food Catering
1332949,Truck,620 MENDELL ST,EXPIRED,37.73937866943732,-122.3863379451534,06/26/2019 12:00:00 AM,01/15/2021 12:00:00 AM,Mini Mobile Food Catering
840504,Truck,750 PHELPS ST,SUSPEND,37.73944545286909,-122.39301498669842,08/01/2017 12:00:00 AM,03/15/2018 12:00:00 AM,Taqueria Lolita
1336743,Truck,151 EXECUTIVE PARK BLVD,EXPIRED,0.0,0.0,07/10/2019 12:00:00 AM,01/15/2021 12:00:00 AM,Quan Catering
1337437,Truck,1370 VAN DYKE AVE,EXPIRED,37.72695076437817,-122.3879799562619,07/12/2019 12:00:00 AM,01/15/2021 12:00:00 AM,Liang Bai Ping
934303,Push Cart,945 MARKET ST,SUSPEND,37.78283416369839,-122.408837940446,03/15/2017 12:00:00 AM,07/15/2018 12:00:00 AM,Yummy Hot Dogs
1337433,Truck,1212 THOMAS AVE,EXPIRED,37.7266647697066,-122.3841442246062,07/12/2019 12:00:00 AM,01/15/2021 12:00:00 AM,Liang Bai Ping
1336737,Truck,2555 BAY SHORE BLVD,EXPIRED,37.70937546400143,-122.40415437850858,07/10/2019 12:00:00 AM,01/15/2021 12:00:00 AM,Quan Catering
1351263,Push Cart,2501 MISSION ST,EXPIRED,37.756877451535736,-122.41857988947626,11/04/2019 12:00:00 AM,01/15/2021 12:00:00 AM,Isidoro Serrano
735315,Push Cart,1 CALIFORNIA ST,REQUESTED,37.79321373166341,-122.39704303671824,,03/15/2016 12:00:00 AM,Ziaurehman Amini
1337445,Truck,1460 BANCROFT AVE,EXPIRED,37.72441324329633,-122.39015723961076,07/12/2019 12:00:00 AM,01/15/2021 12:00:00 AM,Liang Bai Ping
1337457,Truck,2200 OFARRELL ST,EXPIRED,0.0,0.0,07/12/2019 12:00:00 AM,01/15/2021 12:00:00 AM,Liang Bai Ping
1343454,Truck,Assessors Block /Lot,REQUESTED,0.0,0.0,,,Esmeli Catering
1337446,Truck,1555 BANCROFT AVE,EXPIRED,37.72439752974338,-122.39150511638296,07/12/2019 12:00:00 AM,01/15/2021 12:00:00 AM,Liang Bai Ping
1515719,Truck,1550 04TH ST,REQUESTED,37.76912441216805,-122.39147491124584,,11/15/2021 12:00:00 AM,Treats by the Bay LLC
1367765,Push Cart,1355 MARKET ST,EXPIRED,37.77673621275012,-122.41639493007732,02/14/2020 12:00:00 AM,01/15/2021 12:00:00 AM,Authentic India
1344203,Push Cart,567 BAY ST,REQUESTED,0.0,0.0,,07/15/2020 12:00:00 AM,"Bay Area Dots, LLC"
1337454,Truck,1153 SHAFTER AVE,EXPIRED,37.72648516321647,-122.38323245870733,07/12/2019 12:00:00 AM,01/15/2021 12:00:00 AM,Liang Bai Ping
1400796,Truck,2615 24TH ST,REQUESTED,37.75281482922111,-122.40566264191835,,01/31/2021 12:00:00 AM,El Calamar Perubian Food Truck
1337923,,155 SANSOME ST,REQUESTED,37.79183426305553,-122.40127961659626,,,La Jefa
1340417,Push Cart,425 HAYES ST,EXPIRED,37.776566896519526,-122.42339537672729,07/26/2019 12:00:00 AM,01/15/2021 12:00:00 AM,Let's Be Frank
1447794,Truck,564 HOWARD ST,REQUESTED,37.787539893467496,-122.39772670915164,,07/15/2021 12:00:00 AM,Street Meet
1337920,,1550 04TH ST,REQUESTED,37.76912441216805,-122.39147491124584,,,La Jefa
1359707,Truck,Assessors Block /Lot,REQUESTED,0.0,0.0,,07/15/2020 12:00:00 AM,Union Square Business Improvement District
1332946,Truck,701 16TH ST,EXPIRED,0.0,0.0,06/26/2019 12:00:00 AM,01/15/2021 12:00:00 AM,Mini Mobile Food Catering
934553,Truck,1 POST ST,EXPIRED,37.788778723378,-122.40257456841074,08/29/2017 12:00:00 AM,07/15/2018 12:00:00 AM,"Casey's Pizza, LLC"
1332939,Truck,350 08TH ST,EXPIRED,37.77369415247486,-122.40965844135582,06/26/2019 12:00:00 AM,01/15/2021 12:00:00 AM,Mini Mobile Food Catering
1337434,Truck,1265 THOMAS AVE,EXPIRED,37.72670967536868,-122.38529469118735,07/12/2019 12:00:00 AM,01/15/2021 12:00:00 AM,Liang Bai Ping
1337447,Truck,300 BEALE ST,EXPIRED,37.78813947887162,-122.39257951537353,07/12/2019 12:00:00 AM,01/15/2021 12:00:00 AM,Liang Bai Ping
1337786,Truck,353 BAY SHORE BLVD,REQUESTED,37.74171783074393,-122.4054179774482,,07/15/2020 12:00:00 AM,Giant Burrito
